#cP2018  7 19  0  0  0.00000000      96 u+U   IGS08 FIT SHAO
## 2010 345600.00000000   900.00000000 58318 0.0000000000000
+   81   C01C02C03C04C05C06C07C09C10C11C12C13C14E01E02E03E04
+        E05E07E08E09E11E12E14E18E19E24E26E30G01G02G03G05G06
+        G07G08G09G10G11G12G13G14G15G16G17G18G19G20G21G22G23
+        G24G25G26G27G28G29G30G31G32R01R02R03R04R07R08R09R10
+        R11R13R14R15R16R17R18R19R20R21R22R23R24  0  0  0  0
+          0  0  0  0  0  0  0  0  0  0  0  0  0  0  0  0  0
+          0  0  0  0  0  0  0  0  0  0  0  0  0  0  0  0  0
+          0  0  0  0  0  0  0  0  0  0  0  0  0  0  0  0  0
+          0  0  0  0  0  0  0  0  0  0  0  0  0  0  0  0  0
+          0  0  0  0  0  0  0  0  0  0  0  0  0  0  0  0  0
++         8  9  9  9  8  4  4  4  4  4  3  4  4  3  4  4  3
++         4  4  4  3  4  4  4  4  3  4  3  4  2  2  2  2  2
++         1  2  1  2  2  2  2  2  1  2  2  2  2  2  2  1  2
++         2  2  2  2  2  2  1  1  2  3  3  3  3  3  3  3  3
++         3  3  3  2  3  3  3  3  3  3  3  3  3  0  0  0  0
++         0  0  0  0  0  0  0  0  0  0  0  0  0  0  0  0  0
++         0  0  0  0  0  0  0  0  0  0  0  0  0  0  0  0  0
++         0  0  0  0  0  0  0  0  0  0  0  0  0  0  0  0  0
++         0  0  0  0  0  0  0  0  0  0  0  0  0  0  0  0  0
++         0  0  0  0  0  0  0  0  0  0  0  0  0  0  0  0  0
%c M  cc GPS ccc cccc cccc cccc cccc ccccc ccccc ccccc ccccc
%c cc cc ccc ccc cccc cccc cccc cccc ccccc ccccc ccccc ccccc
%f  1.2500000  1.025000000  0.00000000000  0.000000000000000
%f  0.0000000  0.000000000  0.00000000000  0.000000000000000
%i    0    0    0    0      0      0      0      0         0
%i    0    0    0    0      0      0      0      0         0
/* CCCCCCCCCCCCCCCCCCCCCCCCCCCCCCCCCCCCCCCCCCCCCCCCCCCCCCCCC                    
/* CCCCCCCCCCCCCCCCCCCCCCCCCCCCCCCCCCCCCCCCCCCCCCCCCCCCCCCCC                    
/* CCCCCCCCCCCCCCCCCCCCCCCCCCCCCCCCCCCCCCCCCCCCCCCCCCCCCCCCC                    
/* PCV:igs_absolute_08.atx OL/AL:FES2004  YN ORB:CoN CLK:CoN                    
*  2018  7 19 16 30  0.00000000
PC01 -32337.810739  27078.558625   -706.698745    519.046109
PC02   4378.230312  41938.226654   -195.416682    116.986018
PC03 -14774.591945  39471.790956  -1012.971177    -58.188631
PC04 -39618.075129  14410.403132   -664.540182   -103.216950
PC05  21874.078196  36054.783230      0.829523    449.909164
PC06 -17398.122724  21703.638345  31889.480242    267.914350
PC07 -21717.006370  36431.739846   -917.897236    219.751594
PC09  -1954.624055  24568.721301  34405.213149    223.139035
PC10 -10051.161294  38331.916621 -14820.925405   -239.626875
PC11  -8275.783731  13002.939015 -23211.402328   -439.134403
PC12 -22479.250149  -2677.413472 -16328.955086    681.393125
PC13   3655.620967  36887.245759 -19855.371851    -26.365660
PC14 -19213.640002  17211.235853  10647.905355    421.091474
PE01 -18245.690056   2876.253571  23133.312589   -234.956552
PE02  18248.187870  -2896.113954 -23124.291830    179.315372
PE03  29368.172076    717.841343   3582.322311    102.994022
PE04 -23159.840763  11644.591469  14302.460574     80.655039
PE05  18385.813643  12698.757665  19422.608551    385.263763
PE07   3310.119145 -17205.479866 -23841.496627    154.316621
PE08  23055.922965 -11761.540189 -14339.594972   6700.109244
PE09  -3218.738394  17107.889430  23956.381183   6889.675311
PE11   4740.325785  25017.492912 -15118.557668   2787.645301
PE12 -11833.486292  11777.155183 -24445.239726   4796.064755
PE14   8992.544407 -12248.383711  17987.652512   6708.043416
PE18  -6727.170583  19639.016784 -25043.008434   6206.625885
PE19 -29052.965114  -1829.525133  -5341.620225    145.202814
PE24  -6932.362852  27311.636005  -9066.999897   6751.767235
PE26 -17931.612011 -23404.825542  -2640.538506   5850.886029
PE30  17904.756644 -21375.721224  -9936.585798   5824.658195
PG01  14012.953818  -5655.022237  21658.655451     91.795436
PG02 -14373.942687 -17057.232664 -14030.730950    212.529913
PG03  22380.314924 -12193.568540   7331.139690    267.365710
PG05 -15988.953636  -5607.950922 -20608.138447    154.804753
PG06  -6174.264826 -25729.779628  -2112.378549    544.734062
PG07   7012.471053 -20684.819606 -14553.147924    315.446691
PG08  25608.053757   4745.571481   5652.958955     50.477605
PG09  12963.571929 -10933.734513 -20470.652064    672.575935
PG10  -4782.857373  19720.089433  17094.704995    347.836789
PG11  17389.744134  -1580.568589  19414.423638   -570.122508
PG12 -22626.392687   7394.815396  11391.940575    479.104248
PG13 -23301.122004 -12699.886104  -1304.944183     66.960178
PG14  14485.010171  17456.200514  14262.777248     61.545101
PG15 -25583.738470   -951.577470   7569.507663   -191.246422
PG16  14336.420394   7168.059634 -21416.722212    176.322533
PG17  -5196.257570 -16839.477886  20297.137438     82.625172
PG18  15902.865370   4297.117709  20401.027781    194.725166
PG19 -13960.908591 -17191.730501  14248.196704   -259.895340
PG20 -12078.160250  21976.798645   8495.979214    671.855899
PG21  -2695.248925  23642.431400 -11032.075617   -206.056059
PG22  21700.273906  -5700.177242  14440.152102   -303.554928
PG23  22376.937572  -3067.986886 -14008.007969    -55.055348
PG24 -15590.303119   1537.872555  21342.820680    106.409234
PG25 -19478.329934  17809.079991  -1638.308917   -459.350441
PG26   5635.865825  14985.875400 -21182.175555     80.402331
PG27  22940.119183  12367.959227  -5882.711897    519.180929
PG28   8728.607176 -19497.920856  16433.944677    891.530987
PG29 -15021.701141   8238.248239 -20320.403683    571.093249
PG30    725.574502 -25870.278588  -5540.992095    207.783133
PG31   6705.144452  25108.301185  -4216.568530    265.827301
PG32   5952.151078  16836.854183  19731.535605   -312.542319
PR01  15857.057521   5421.148467  19231.699458    188.485726
PR02  24924.630020  -5030.574606   2375.194076    479.646629
PR03  17568.125212 -11515.225349 -14456.656355    297.298756
PR04   -569.723504 -11130.390996 -22923.663595    428.306644
PR07 -17123.210782  11617.882872  14931.942169    116.403093
PR08   -145.368641  11306.051770  22921.452017    181.394819
PR09 -12760.875149   7950.312901  20641.337066    178.089607
PR10 -10466.345288  21826.923419   8166.711747    187.374471
PR11  -2030.758065  23483.045513  -9803.316310    124.106828
PR13  12360.572311  -7968.323732 -20853.828032    146.511722
PR14  10477.247968 -21711.899366  -8291.859692    188.395060
PR15   4452.060988 -24464.129202   5905.368745    145.794358
PR16  -7205.751565 -12097.280409  21274.633862    256.497939
PR17   5708.907218  -9408.126987  23016.627826    308.352078
PR18  -8388.576424 -18749.995983  15090.678534    362.725368
PR19 -17706.017502 -18305.892721  -1455.669950    102.486680
PR20 -16733.676388  -6076.172101 -18245.624432   -186.510266
PR21  -5384.298419   9602.823319 -23013.594954    165.587025
PR22  10037.680510  19361.789867 -13339.468688    103.087483
PR23  18887.334411  16237.746189   5494.676537    325.894413
PR24  16465.220877   4930.987936  18823.207661     -9.888543
EOF
